[{"OBJECT_NAME":"STARLINK-34592","OBJECT_ID":"2025-144Y","EPOCH":"2026-03-09T12:37:00.459264","MEAN_MOTION":15.30213038,"ECCENTRICITY":0.00014384,"INCLINATION":53.1605,"RA_OF_ASC_NODE":169.2442,"ARG_OF_PERICENTER":152.0048,"MEAN_ANOMALY":208.103,"EPHEMERIS_TYPE":0,"CLASSIFICATION_TYPE":"U","NORAD_CAT_ID":64746,"ELEMENT_SET_NO":999,"REV_AT_EPOCH":3986,"BSTAR":0.00083033596,"MEAN_MOTION_DOT":0.00024323,"MEAN_MOTION_DDOT":0},{"OBJECT_NAME":"OBJECT BC","OBJECT_ID":"2025-313BC","EPOCH":"2026-03-09T04:33:08.504064","MEAN_MOTION":15.29126358,"ECCENTRICITY":0.00084789,"INCLINATION":97.3985,"RA_OF_ASC_NODE":144.811,"ARG_OF_PERICENTER":328.9209,"MEAN_ANOMALY":31.1528,"EPHEMERIS_TYPE":0,"CLASSIFICATION_TYPE":"U","NORAD_CAT_ID":67298,"ELEMENT_SET_NO":999,"REV_AT_EPOCH":789,"BSTAR":0.0026410397,"MEAN_MOTION_DOT":0.00075331,"MEAN_MOTION_DDOT":0}]
